{"type": "FeatureCollection", "features": [ {"type": "Feature", "properties": {"norad_id": 31456, "name": "FENGYUN 1C DEB", "group": "fengyun-1c-debris", "lat": 78.60553492761375, "lon": -33.15696896020122, "alt_km": 790.7718038373023, "timestamp": "2025-12-21T22:41:41.742453+00:00", "meta": {"OBJECT_NAME": "FENGYUN 1C DEB", "OBJECT_ID": "1999-025BUU", "EPOCH": "2025-12-21T12:15:10.274112", "MEAN_MOTION": 14.42440771, "ECCENTRICITY": 0.00676954, "INCLINATION": 98.5778, "RA_OF_ASC_NODE": 97.9069, "ARG_OF_PERICENTER": 287.6783, "MEAN_ANOMALY": 71.7024, "EPHEMERIS_TYPE": 0, "CLASSIFICATION_TYPE": "U", "NORAD_CAT_ID": 31456, "ELEMENT_SET_NO": 999, "REV_AT_EPOCH": 97593, "BSTAR": 0.00065261746, "MEAN_MOTION_DOT": 2.174e-05, "MEAN_MOTION_DDOT": 0}, "tle": {"line1": "1 31456U 99025BUU 25355.51053558  .00002174  00000+0  65262-3 0  9993", "line2": "2 31456  98.5778  97.9069 0067695 287.6783  71.7024 14.42440771975937"}}, "geometry": {"type": "Point", "coordinates": [-33.15696896020122, 78.60553492761375]}}, {"type": "Feature", "properties": {"norad_id": 31459, "name": "FENGYUN 1C DEB", "group": "fengyun-1c-debris", "lat": 79.41442256590615, "lon": 134.14978404588294, "alt_km": 670.7973512941899, "timestamp": "2025-12-21T22:41:41.742463+00:00", "meta": {"OBJECT_NAME": "FENGYUN 1C DEB", "OBJECT_ID": "1999-025BUX", "EPOCH": "2025-12-12T23:44:38.705568", "MEAN_MOTION": 14.44083824, "ECCENTRICITY": 0.00940456, "INCLINATION": 98.1765, "RA_OF_ASC_NODE": 255.2445, "ARG_OF_PERICENTER": 130.906, "MEAN_ANOMALY": 230.0325, "EPHEMERIS_TYPE": 0, "CLASSIFICATION_TYPE": "U", "NORAD_CAT_ID": 31459, "ELEMENT_SET_NO": 999, "REV_AT_EPOCH": 64561, "BSTAR": 0.0020176648, "MEAN_MOTION_DOT": 7.253e-05, "MEAN_MOTION_DDOT": 0}, "tle": {"line1": "1 31459U 99025BUX 25346.98933687  .00007253  00000+0  20177-2 0  9995", "line2": "2 31459  98.1765 255.2445 0094045 130.9060 230.0325 14.44083824645613"}}, "geometry": {"type": "Point", "coordinates": [134.14978404588294, 79.41442256590615]}}, {"type": "Feature", "properties": {"norad_id": 31462, "name": "FENGYUN 1C DEB", "group": "fengyun-1c-debris", "lat": -31.904204114991035, "lon": 19.53997176690583, "alt_km": 875.3389810691951, "timestamp": "2025-12-21T22:41:41.742473+00:00", "meta": {"OBJECT_NAME": "FENGYUN 1C DEB", "OBJECT_ID": "1999-025BVA", "EPOCH": "2025-12-21T00:53:25.564416", "MEAN_MOTION": 14.1302017, "ECCENTRICITY": 0.00324889, "INCLINATION": 98.6892, "RA_OF_ASC_NODE": 13.1952, "ARG_OF_PERICENTER": 180.579, "MEAN_ANOMALY": 208.0766, "EPHEMERIS_TYPE": 0, "CLASSIFICATION_TYPE": "U", "NORAD_CAT_ID": 31462, "ELEMENT_SET_NO": 999, "REV_AT_EPOCH": 95973, "BSTAR": 0.0002470369, "MEAN_MOTION_DOT": 4.2e-06, "MEAN_MOTION_DDOT": 0}, "tle": {"line1": "1 31462U 99025BVA 25355.03710144  .00000420  00000+0  24704-3 0  9996", "line2": "2 31462  98.6892  13.1952 0032488 180.5790 208.0766 14.13020170959737"}}, "geometry": {"type": "Point", "coordinates": [19.53997176690583, -31.904204114991035]}}, {"type": "Feature", "properties": {"norad_id": 31463, "name": "FENGYUN 1C DEB", "group": "fengyun-1c-debris", "lat": 5.2587813757534425, "lon": -22.700811366062098, "alt_km": 619.3082660193331, "timestamp": "2025-12-21T22:41:41.742483+00:00", "meta": {"OBJECT_NAME": "FENGYUN 1C DEB", "OBJECT_ID": "1999-025BVB", "EPOCH": "2025-12-17T05:02:14.245440", "MEAN_MOTION": 14.36964853, "ECCENTRICITY": 0.02135653, "INCLINATION": 99.0801, "RA_OF_ASC_NODE": 333.1449, "ARG_OF_PERICENTER": 26.7734, "MEAN_ANOMALY": 334.4288, "EPHEMERIS_TYPE": 0, "CLASSIFICATION_TYPE": "U", "NORAD_CAT_ID": 31463, "ELEMENT_SET_NO": 999, "REV_AT_EPOCH": 64784, "BSTAR": 0.00042071423, "MEAN_MOTION_DOT": 1.563e-05, "MEAN_MOTION_DDOT": 0}, "tle": {"line1": "1 31463U 99025BVB 25351.20988710  .00001563  00000+0  42071-3 0  9994", "line2": "2 31463  99.0801 333.1449 0213565  26.7734 334.4288 14.36964853647844"}}, "geometry": {"type": "Point", "coordinates": [-22.700811366062098, 5.2587813757534425]}}, {"type": "Feature", "properties": {"norad_id": 31464, "name": "FENGYUN 1C DEB", "group": "fengyun-1c-debris", "lat": -71.68711962884696, "lon": -165.32647532094157, "alt_km": 833.3444368355404, "timestamp": "2025-12-21T22:41:41.742493+00:00", "meta": {"OBJECT_NAME": "FENGYUN 1C DEB", "OBJECT_ID": "1999-025BVC", "EPOCH": "2025-12-19T22:29:16.076832", "MEAN_MOTION": 14.12484181, "ECCENTRICITY": 0.0043445, "INCLINATION": 98.7938, "RA_OF_ASC_NODE": 40.5879, "ARG_OF_PERICENTER": 221.5189, "MEAN_ANOMALY": 263.9379, "EPHEMERIS_TYPE": 0, "CLASSIFICATION_TYPE": "U", "NORAD_CAT_ID": 31464, "ELEMENT_SET_NO": 999, "REV_AT_EPOCH": 94781, "BSTAR": 0.00024711, "MEAN_MOTION_DOT": 4.17e-06, "MEAN_MOTION_DDOT": 0}, "tle": {"line1": "1 31464U 99025BVC 25353.93699163  .00000417  00000+0  24711-3 0  9996", "line2": "2 31464  98.7938  40.5879 0043445 221.5189 263.9379 14.12484181947817"}}, "geometry": {"type": "Point", "coordinates": [-165.32647532094157, -71.68711962884696]}}, {"type": "Feature", "properties": {"norad_id": 31466, "name": "FENGYUN 1C DEB", "group": "fengyun-1c-debris", "lat": -10.04566552855735, "lon": -72.2385497548761, "alt_km": 745.8191712034759, "timestamp": "2025-12-21T22:41:41.742503+00:00", "meta": {"OBJECT_NAME": "FENGYUN 1C DEB", "OBJECT_ID": "1999-025BVE", "EPOCH": "2025-12-16T02:14:17.384928", "MEAN_MOTION": 14.1852535, "ECCENTRICITY": 0.02990788, "INCLINATION": 99.0889, "RA_OF_ASC_NODE": 280.1326, "ARG_OF_PERICENTER": 299.2838, "MEAN_ANOMALY": 57.8749, "EPHEMERIS_TYPE": 0, "CLASSIFICATION_TYPE": "U", "NORAD_CAT_ID": 31466, "ELEMENT_SET_NO": 999, "REV_AT_EPOCH": 96376, "BSTAR": 0.00020920335, "MEAN_MOTION_DOT": 6.16e-06, "MEAN_MOTION_DDOT": 0}, "tle": {"line1": "1 31466U 99025BVE 25350.09325677  .00000616  00000+0  20920-3 0  9997", "line2": "2 31466  99.0889 280.1326 0299078 299.2838  57.8749 14.18525350963768"}}, "geometry": {"type": "Point", "coordinates": [-72.2385497548761, -10.04566552855735]}}, {"type": "Feature", "properties": {"norad_id": 31468, "name": "FENGYUN 1C DEB", "group": "fengyun-1c-debris", "lat": -78.76314735816221, "lon": 38.019313609231936, "alt_km": 832.756393231638, "timestamp": "2025-12-21T22:41:41.742514+00:00", "meta": {"OBJECT_NAME": "FENGYUN 1C DEB", "OBJECT_ID": "1999-025BVG", "EPOCH": "2025-12-15T17:40:52.277088", "MEAN_MOTION": 14.46598121, "ECCENTRICITY": 0.01665536, "INCLINATION": 98.1678, "RA_OF_ASC_NODE": 345.7354, "ARG_OF_PERICENTER": 157.6429, "MEAN_ANOMALY": 203.2135, "EPHEMERIS_TYPE": 0, "CLASSIFICATION_TYPE": "U", "NORAD_CAT_ID": 31468, "ELEMENT_SET_NO": 999, "REV_AT_EPOCH": 67415, "BSTAR": 0.00027310227, "MEAN_MOTION_DOT": 1.122e-05, "MEAN_MOTION_DDOT": 0}, "tle": {"line1": "1 31468U 99025BVG 25349.73671617  .00001122  00000+0  27310-3 0  9999", "line2": "2 31468  98.1678 345.7354 0166553 157.6429 203.2135 14.46598121674154"}}, "geometry": {"type": "Point", "coordinates": [38.019313609231936, -78.76314735816221]}}, {"type": "Feature", "properties": {"norad_id": 31473, "name": "FENGYUN 1C DEB", "group": "fengyun-1c-debris", "lat": -48.79367021769835, "lon": -161.05040524493438, "alt_km": 820.7332895767577, "timestamp": "2025-12-21T22:41:41.742524+00:00", "meta": {"OBJECT_NAME": "FENGYUN 1C DEB", "OBJECT_ID": "1999-025BVM", "EPOCH": "2025-12-19T07:45:43.627968", "MEAN_MOTION": 14.29830542, "ECCENTRICITY": 0.0064578, "INCLINATION": 98.5452, "RA_OF_ASC_NODE": 26.2636, "ARG_OF_PERICENTER": 355.3694, "MEAN_ANOMALY": 64.8933, "EPHEMERIS_TYPE": 0, "CLASSIFICATION_TYPE": "U", "NORAD_CAT_ID": 31473, "ELEMENT_SET_NO": 999, "REV_AT_EPOCH": 69615, "BSTAR": 0.0010461, "MEAN_MOTION_DOT": 2.708e-05, "MEAN_MOTION_DDOT": 0}, "tle": {"line1": "1 31473U 99025BVM 25353.32342162  .00002708  00000+0  10461-2 0  9994", "line2": "2 31473  98.5452  26.2636 0064578 355.3694  64.8933 14.29830542696151"}}, "geometry": {"type": "Point", "coordinates": [-161.05040524493438, -48.79367021769835]}}, {"type": "Feature", "properties": {"norad_id": 31474, "name": "FENGYUN 1C DEB", "group": "fengyun-1c-debris", "lat": -58.7998512548957, "lon": -153.46238433992272, "alt_km": 837.2279789794811, "timestamp": "2025-12-21T22:41:41.742534+00:00", "meta": {"OBJECT_NAME": "FENGYUN 1C DEB", "OBJECT_ID": "1999-025BVN", "EPOCH": "2025-12-17T20:31:53.420160", "MEAN_MOTION": 14.10616871, "ECCENTRICITY": 0.00720818, "INCLINATION": 99.1448, "RA_OF_ASC_NODE": 37.8022, "ARG_OF_PERICENTER": 192.292, "MEAN_ANOMALY": 167.6494, "EPHEMERIS_TYPE": 0, "CLASSIFICATION_TYPE": "U", "NORAD_CAT_ID": 31474, "ELEMENT_SET_NO": 999, "REV_AT_EPOCH": 95042, "BSTAR": 0.0012018353, "MEAN_MOTION_DOT": 2.151e-05, "MEAN_MOTION_DDOT": 0}, "tle": {"line1": "1 31474U 99025BVN 25351.85547940  .00002151  00000+0  12018-2 0  9994", "line2": "2 31474  99.1448  37.8022 0072081 192.2920 167.6494 14.10616871950423"}}, "geometry": {"type": "Point", "coordinates": [-153.46238433992272, -58.7998512548957]}}, {"type": "Feature", "properties": {"norad_id": 31475, "name": "FENGYUN 1C DEB", "group": "fengyun-1c-debris", "lat": 25.627875535745158, "lon": -119.31000675302028, "alt_km": 672.3774673947601, "timestamp": "2025-12-21T22:41:41.742543+00:00", "meta": {"OBJECT_NAME": "FENGYUN 1C DEB", "OBJECT_ID": "1999-025BVP", "EPOCH": "2025-12-19T10:28:07.826880", "MEAN_MOTION": 14.38229, "ECCENTRICITY": 0.0211787, "INCLINATION": 98.9397, "RA_OF_ASC_NODE": 242.4077, "ARG_OF_PERICENTER": 87.4314, "MEAN_ANOMALY": 275.1095, "EPHEMERIS_TYPE": 0, "CLASSIFICATION_TYPE": "U", "NORAD_CAT_ID": 31475, "ELEMENT_SET_NO": 999, "REV_AT_EPOCH": 96175, "BSTAR": 0.000435, "MEAN_MOTION_DOT": 1.661e-05, "MEAN_MOTION_DDOT": 0}, "tle": {"line1": "1 31475U 99025BVP 25353.43620170  .00001661  00000+0  43500-3 0  9994", "line2": "2 31475  98.9397 242.4077 0211787  87.4314 275.1095 14.38229000961752"}}, "geometry": {"type": "Point", "coordinates": [-119.31000675302028, 25.627875535745158]}}]}